
# Worst residual: 55.44 km
# MJD 58439.000000 (2018 Nov 17  0:00)
ZTF00hf = ZTF00YB
1 89993U 00000AAG 18321.49919926  .00000000  00000-0  00000-0 0  2658
2 89993 014.5848 276.5206 7006600 291.4658 191.1905 00.84022393    09

# Worst residual: 115.74 km
# MJD 58440.000000 (2018 Nov 18  0:00)
ZTF00hf = ZTF00YB
1 89993U 00000AAG 18322.49919926  .00000000  00000-0  00000-0 0  2659
2 89993 014.5583 276.6891 6997217 291.7593 133.6754 00.84166343    06

# Worst residual: 122.67 km
# MJD 58441.000000 (2018 Nov 19  0:00)
ZTF00hf = ZTF00YB
1 89993U 00000AAG 18323.49919926  .00000000  00000-0  00000-0 0  2650
2 89993 014.5278 276.8543 6978668 291.9865 076.1353 00.84359724    09

# Worst residual: 84.62 km
# MJD 58442.000000 (2018 Nov 20  0:00)
ZTF00hf = ZTF00YB
1 89993U 00000AAG 18324.49919926  .00000000  00000-0  00000-0 0  2651
2 89993 014.4958 277.0969 6952839 292.2335 018.2774 00.84427463    06

# Worst residual: 102.91 km
# MJD 58443.000000 (2018 Nov 21  0:00)
ZTF00hf = ZTF00YB
1 89993U 00000AAG 18325.49919926  .00000000  00000-0  00000-0 0  2652
2 89993 014.4611 277.3717 6931432 292.4387 320.4628 00.84225191    01

# Worst residual: 78.06 km
# MJD 58444.000000 (2018 Nov 22  0:00)
ZTF00hf = ZTF00YB
1 89993U 00000AAG 18326.49919926  .00000000  00000-0  00000-0 0  2653
2 89993 014.4389 277.6130 6901129 292.6311 262.9150 00.84037439    00

# Worst residual: 60.34 km
# MJD 58445.000000 (2018 Nov 23  0:00)
ZTF00hf = ZTF00YB
1 89993U 00000AAG 18327.49919926  .00000000  00000-0  00000-0 0  2654
2 89993 014.4117 277.8582 6872212 292.8997 205.3813 00.84005755    07

# Worst residual: 75.26 km
# MJD 58446.000000 (2018 Nov 24  0:00)
ZTF00hf = ZTF00YB
1 89993U 00000AAG 18328.49919926  .00000000  00000-0  00000-0 0  2655
2 89993 014.3771 278.1174 6856432 293.1434 147.8348 00.84126573    04

# Worst residual: 127.21 km
# MJD 58447.000000 (2018 Nov 25  0:00)
ZTF00hf = ZTF00YB
1 89993U 00000AAG 18329.49919926  .00000000  00000-0  00000-0 0  2656
2 89993 014.3304 278.4032 6837459 293.2365 090.3656 00.84327299    06

# Worst residual: 73.94 km
# MJD 58448.000000 (2018 Nov 26  0:00)
ZTF00hf = ZTF00YB
1 89993U 00000AAG 18330.49919926  .00000000  00000-0  00000-0 0  2658
2 89993 014.2881 278.6320 6806749 293.4638 032.6118 00.84436578    03

# Worst residual: 103.76 km
# MJD 58449.000000 (2018 Nov 27  0:00)
ZTF00hf = ZTF00YB
1 89993U 00000AAG 18331.49919926  .00000000  00000-0  00000-0 0  2659
2 89993 014.2454 278.9788 6782157 293.6125 334.7819 00.84279203    03

# Worst residual: 103.98 km
# MJD 58450.000000 (2018 Nov 28  0:00)
ZTF00hf = ZTF00YB
1 89993U 00000AAG 18332.49919926  .00000000  00000-0  00000-0 0  2650
2 89993 014.2071 279.3104 6752436 293.6988 277.2573 00.84069474    04

# Worst residual: 60.22 km
# MJD 58451.000000 (2018 Nov 29  0:00)
ZTF00hf = ZTF00YB
1 89993U 00000AAG 18333.49919926  .00000000  00000-0  00000-0 0  2651
2 89993 014.1863 279.5601 6719391 293.9483 219.7397 00.84002142    06

# Worst residual: 70.02 km
# MJD 58452.000000 (2018 Nov 30  0:00)
ZTF00hf = ZTF00YB
1 89993U 00000AAG 18334.49919926  .00000000  00000-0  00000-0 0  2652
2 89993 014.1495 279.8431 6696906 294.1837 162.2276 00.84079532    08

# Worst residual: 134.40 km
# MJD 58453.000000 (2018 Dec  1  0:00)
ZTF00hf = ZTF00YB
1 89993U 00000AAG 18335.49919926  .00000000  00000-0  00000-0 0  2653
2 89993 014.1069 280.1083 6681880 294.3176 104.7748 00.84298581    08

# Worst residual: 86.47 km
# MJD 58454.000000 (2018 Dec  2  0:00)
ZTF00hf = ZTF00YB
1 89993U 00000AAG 18336.49919926  .00000000  00000-0  00000-0 0  2654
2 89993 014.0526 280.4351 6648485 294.4338 047.1042 00.84442010    06

# Worst residual: 98.33 km
# MJD 58455.000000 (2018 Dec  3  0:00)
ZTF00hf = ZTF00YB
1 89993U 00000AAG 18337.49919926  .00000000  00000-0  00000-0 0  2655
2 89993 014.0019 280.8491 6619103 294.5306 349.2548 00.84325421    06

# Worst residual: 103.18 km
# MJD 58456.000000 (2018 Dec  4  0:00)
ZTF00hf = ZTF00YB
1 89993U 00000AAG 18338.49919926  .00000000  00000-0  00000-0 0  2656
2 89993 013.9640 281.2332 6588423 294.5753 291.7024 00.84104507    09

# Worst residual: 58.01 km
# MJD 58457.000000 (2018 Dec  5  0:00)
ZTF00hf = ZTF00YB
1 89993U 00000AAG 18339.49919926  .00000000  00000-0  00000-0 0  2657
2 89993 013.9333 281.5442 6549173 294.7349 234.2433 00.83995498    07

# Worst residual: 66.60 km
# MJD 58458.000000 (2018 Dec  6  0:00)
ZTF00hf = ZTF00YB
1 89993U 00000AAG 18340.49919926  .00000000  00000-0  00000-0 0  2659
2 89993 013.8975 281.8370 6523143 294.9697 176.7640 00.84059359    06

# Worst residual: 127.11 km
# MJD 58459.000000 (2018 Dec  7  0:00)
ZTF00hf = ZTF00YB
1 89993U 00000AAG 18341.49919926  .00000000  00000-0  00000-0 0  2650
2 89993 013.8454 282.1685 6506097 295.0645 119.3203 00.84262393    07

# Worst residual: 107.48 km
# MJD 58460.000000 (2018 Dec  8  0:00)
ZTF00hf = ZTF00YB
1 89993U 00000AAG 18342.49919926  .00000000  00000-0  00000-0 0  2651
2 89993 013.7926 282.5112 6472299 295.1271 061.7600 00.84427810    09

# Worst residual: 84.26 km
# MJD 58461.000000 (2018 Dec  9  0:00)
ZTF00hf = ZTF00YB
1 89993U 00000AAG 18343.49919926  .00000000  00000-0  00000-0 0  2652
2 89993 013.7341 282.9310 6436357 295.2299 003.9248 00.84374413    06

# Worst residual: 95.88 km
# MJD 58462.000000 (2018 Dec 10  0:00)
ZTF00hf = ZTF00YB
1 89993U 00000AAG 18344.49919926  .00000000  00000-0  00000-0 0  2653
2 89993 013.6887 283.3701 6403910 295.2393 306.3264 00.84144899    04

# Worst residual: 46.41 km
# MJD 58463.000000 (2018 Dec 11  0:00)
ZTF00hf = ZTF00YB
1 89993U 00000AAG 18345.49919926  .00000000  00000-0  00000-0 0  2654
2 89993 013.6560 283.7338 6361158 295.3175 248.9241 00.83999363    07

# Worst residual: 70.20 km
# MJD 58464.000000 (2018 Dec 12  0:00)
ZTF00hf = ZTF00YB
1 89993U 00000AAG 18346.49919926  .00000000  00000-0  00000-0 0  2655
2 89993 013.6112 284.1201 6328719 295.4640 191.4682 00.84045948    01

# Worst residual: 114.82 km
# MJD 58465.000000 (2018 Dec 13  0:00)
ZTF00hf = ZTF00YB
1 89993U 00000AAG 18347.49919926  .00000000  00000-0  00000-0 0  2656
2 89993 013.5642 284.4388 6307849 295.5984 134.0407 00.84231875    04

# Worst residual: 120.44 km
# MJD 58466.000000 (2018 Dec 14  0:00)
ZTF00hf = ZTF00YB
1 89993U 00000AAG 18348.49919926  .00000000  00000-0  00000-0 0  2657
2 89993 013.5078 284.7617 6272843 295.6566 076.5723 00.84410287    04

# Worst residual: 86.42 km
# MJD 58467.000000 (2018 Dec 15  0:00)
ZTF00hf = ZTF00YB
1 89993U 00000AAG 18349.49919926  .00000000  00000-0  00000-0 0  2658
2 89993 013.4444 285.1997 6232441 295.7219 018.8056 00.84411191    05
